SatCatId,ObjectName,LaunchYear,OrbitalPeriod,LaunchMass,StatusCode,Inclination,Status,UcsData,OrbitClassEstimated,LaunchSiteCountry,Owner,UseType,Purpose,LaunchVehicleClass,TLE1,TLE2,MeanMotion,Eccentricity,OrbitClass
36868,AEHF-1 (USA 214),2010,1436.15,-1.0,+,7.63,Active,0,GSO,USA,USA,Unknown,Unknown,Unknown,1 36868U 10039A   25293.94962855  .00000157  00000+0  00000+0 0  9994,2 36868   7.6261  71.0634 0004362 141.7059 188.7445  1.00268100 51256,1.002681,0.0004362,GSO
37152,COSMOS 2467,2010,115.85,225.0,+,82.46,Active,1,LEO,Russia,Russia/USSR,Military,Communications,Rokot,1 37152U 10043A   25293.86284530  .00000029  00000+0  14020-3 0  9993,2 37152  82.4595 214.7025 0001387   4.3752  56.8267 12.42974366685775,12.42974366,0.0001387,LEO
37153,STRELA 3,2010,116.06,-1.0,+,82.46,Active,0,LEO,Russia,Russia/USSR,Unknown,Unknown,Unknown,1 37153U 10043B   25293.91023218  .00000013  00000+0  24890-4 0  9994,2 37153  82.4588 227.4355 0006440 243.3777 116.6642 12.40785993684698,12.40785993,0.000644,LEO
37154,COSMOS 2468,2010,115.78,225.0,+,82.46,Active,1,LEO,Russia,Russia/USSR,Military,Communications,Rokot,1 37154U 10043C   25293.84691634  .00000028  00000+0  12562-3 0  9998,2 37154  82.4635 212.0705 0015136 106.4973 316.8707 12.43736768686125,12.43736768,0.0015136,LEO
37165,YAOGAN-11,2010,97.2,-1.0,+,98.41,Active,1,LEO,PRC,China,Military,Earth Observation,Long March,1 37165U 10047A   25293.60653628  .00001968  00000+0  25640-3 0  9994,2 37165  98.4130 143.0312 0033980 292.5027  67.2588 14.81470982812611,14.81470982,0.003398,LEO
37166,ZHEDA PIXING 1B,2010,96.65,3.5,+,97.92,Active,1,LEO,PRC,China,Civil,Space Science,Long March,1 37166U 10047B   25293.92869785  .00004949  00000+0  51843-3 0  9999,2 37166  97.9196 265.9548 0019752 354.7121   5.3885 14.89900960814774,14.8990096,0.0019752,LEO
37167,ZHEDA PIXING 1C,2010,96.67,3.5,+,97.95,Active,1,LEO,PRC,China,Civil,Space Science,Long March,1 37167U 10047C   25293.94799351  .00005053  00000+0  53242-3 0  9995,2 37167  97.9512 268.5796 0019551   0.5599 359.5636 14.89667635814792,14.89667635,0.0019551,LEO
37168,SBSS (USA 216),2010,95.11,1031.0,+,97.76,Active,1,LEO,USA,USA,Military,Space Science,Minotaur,1 37168U 10048A   25293.19793588  .00008760  00000+0  44585-3 0  9998,2 37168  97.7624 168.8855 0084131 310.6295 206.4667 15.13976667816126,15.13976667,0.0084131,LEO
37179,SHIJIAN-6 04A (SJ-6 04A),2010,95.12,-1.0,+,97.84,Active,1,LEO,PRC,China,Government,Earth Observation,Long March,1 37179U 10051A   25293.98280375  .00012855  00000+0  71051-3 0  9994,2 37179  97.8448 304.3960 0019171 333.2294  26.7945 15.13880429820700,15.13880429,0.0019171,LEO
37180,SHIJIAN-6 04B (SJ-6 04B),2010,96.09,-1.0,+,97.87,Active,1,LEO,PRC,China,Government,Earth Observation,Long March,1 37180U 10051B   25293.98535221  .00002073  00000+0  17770-3 0  9998,2 37180  97.8667 292.0830 0011069  34.0253 326.1676 14.98617618819844,14.98617618,0.0011069,LEO
37185,XM-5,2010,1436.09,5983.0,+,0.06,Active,1,GSO,Kazakhstan,USA,Commercial,Communications,Proton,1 37185U 10053A   25293.88563911 -.00000019  00000+0  00000+0 0  9994,2 37185   0.0617 268.5751 0000617 203.6215 121.0556  1.00272113 55082,1.00272113,6.17e-05,GEO
37188,GLOBALSTAR M079,2010,114.08,700.0,+,52.0,Active,1,LEO,Kazakhstan,Globalstar,Commercial,Communications,Soyuz,1 37188U 10054A   25293.94074273 -.00000074  00000+0  16340-3 0  9992,2 37188  52.0016 116.9716 0000867 110.6322  39.7231 12.62268073692335,12.62268073,8.67e-05,LEO
37189,GLOBALSTAR M074,2010,114.08,700.0,+,52.0,Active,1,LEO,Kazakhstan,Globalstar,Commercial,Communications,Soyuz,1 37189U 10054B   25293.88771501 -.00000078  00000+0  14401-3 0  9994,2 37189  51.9995 116.4361 0000826  89.2287  59.6766 12.62272768692933,12.62272768,8.26e-05,LEO
37190,GLOBALSTAR M076,2010,114.08,700.0,+,52.0,Active,1,LEO,Kazakhstan,Globalstar,Commercial,Communications,Soyuz,1 37190U 10054C   25293.91343394 -.00000068  00000+0  20019-3 0  9996,2 37190  52.0007 116.5412 0000647 102.2677  42.6717 12.62266888692652,12.62266888,6.47e-05,LEO
37191,GLOBALSTAR M077,2010,116.46,700.0,+,52.01,Active,1,LEO,Kazakhstan,Globalstar,Commercial,Communications,Soyuz,1 37191U 10054D   25293.86032554 -.00000110  00000+0 -10416-3 0  9993,2 37191  52.0068  76.6121 0002004  45.4523 120.7438 12.36452514692988,12.36452514,0.0002004,LEO
37192,GLOBALSTAR M075,2010,114.08,700.0,+,51.99,Active,1,LEO,Kazakhstan,Globalstar,Commercial,Communications,Soyuz,1 37192U 10054E   25293.89748604 -.00000060  00000+0  24167-3 0  9998,2 37192  51.9925 158.7774 0000871  79.3729 294.1373 12.62269089691726,12.62269089,8.71e-05,LEO
37193,GLOBALSTAR M073,2010,114.08,700.0,+,52.01,Active,1,LEO,Kazakhstan,Globalstar,Commercial,Communications,Soyuz,1 37193U 10054F   25293.66004645 -.00000109  00000+0 -31507-4 0  9996,2 37193  52.0059  73.4129 0000736 119.2838 253.7253 12.62263679693683,12.62263679,7.36e-05,LEO
37207,BSAT-3B,2010,1436.09,2060.0,+,0.05,Active,1,GSO,French Guiana,Japan,Commercial,Communications,Ariane,1 37207U 10056B   25293.35944378 -.00000348  00000+0  00000+0 0  9999,2 37207   0.0517 112.3614 0004598 110.4768  45.5026  1.00272488 49697,1.00272488,0.0004598,GEO
37210,BEIDOU-2 G4,2010,1436.11,6000.0,+,3.05,Active,1,GSO,PRC,China,Government/Military,Navigation (Global or Regional Positioning),Long March,1 37210U 10057A   25293.86882569 -.00000106  00000+0  00000+0 0  9995,2 37210   3.0498  70.0899 0009622 177.9353 254.2772  1.00270671 54895,1.00270671,0.0009622,GSO
37214,FENGYUN 3B,2010,101.78,2300.0,+,99.0,Active,1,LEO,PRC,China,Government,Earth Observation,Long March,1 37214U 10059A   25293.99722318  .00000180  00000+0  11662-3 0  9991,2 37214  98.9997 333.5842 0022773 142.5884 333.1461 14.14768217773606,14.14768217,0.0022773,LEO
37216,COSMO-SKYMED 4,2010,97.15,1700.0,+,97.89,Active,1,LEO,USA,Italy,Government/Military,Earth Observation,Delta,1 37216U 10060A   25293.98398929  .00000769  00000+0  10315-3 0  9998,2 37216  97.8885 116.0802 0001479  87.5377 272.6005 14.82143503809136,14.82143503,0.0001479,LEO
37218,SKYTERRA 1,2010,1436.09,5360.0,+,4.61,Active,1,GSO,Kazakhstan,USA,Commercial,Communications,Breeze,1 37218U 10061A   25293.88841245 -.00000112  00000+0  00000+0 0  9993,2 37218   4.6142  50.8374 0004980 184.8101  12.4615  1.00272139 54790,1.00272139,0.000498,GSO
37224,O/OREOS (USA 219),2010,96.5,5.5,+,71.97,Active,1,LEO,USA,USA,Civil/Government,Space Science,Minotaur,1 37224U 10062C   25293.94297657  .00005033  00000+0  49806-3 0  9997,2 37224  71.9702 261.7085 0014223 171.2332 188.9090 14.92234252 80935,14.92234252,0.0014223,LEO
37237,HYLAS 1,2010,1431.24,2242.0,+,4.99,Active,1,GSO,French Guiana,UK,Commercial,Communications,Ariane,1 37237U 10065A   25293.89283248 -.00000227  00000+0  00000+0 0  9999,2 37237   5.0338  75.9469 0000777 174.3185  21.7750  1.00271854  4489,1.00271854,7.77e-05,GSO
37238,INTELSAT 17 (IS-17),2010,1436.09,5540.0,+,0.01,Active,1,GSO,French Guiana,INTELSAT,Commercial,Communications,Ariane,1 37238U 10065B   25293.97139590  .00000003  00000+0  00000+0 0  9990,2 37238   0.0209 231.1096 0002481 344.1440 230.1496  1.00273889 50843,1.00273889,0.0002481,GEO
37256,BEIDOU-2 IGSO-2,2010,1436.42,4200.0,+,47.98,Active,1,GSO,PRC,China,Government/Military,Navigation (Global or Regional Positioning),Long March,1 37256U 10068A   25292.89211578 -.00000204  00000+0  00000+0 0  9994,2 37256  47.9820 274.8089 0047470 217.5799 321.7125  1.00249216 54381,1.00249216,0.004747,GSO
37258,EUTELSAT KA-SAT 9A,2010,1436.11,6150.0,+,0.06,Active,1,GSO,Kazakhstan,EUTELSAT,Commercial,Communications,Proton,1 37258U 10069A   25293.33942369  .00000064  00000+0  00000+0 0  9999,2 37258   0.0602 318.0455 0002575 217.3029 344.9283  1.00270583 41604,1.00270583,0.0002575,GEO
37264,HISPASAT 30W-5,2010,1436.09,5320.0,+,0.05,Active,1,GSO,French Guiana,Spain,Commercial,Communications,Ariane,1 37264U 10070A   25293.75980293 -.00000212  00000+0  00000+0 0  9998,2 37264   0.0528  96.5729 0004807  89.0678  87.3839  1.00271913 50786,1.00271913,0.0004807,GEO
37265,KOREASAT 6,2010,1436.1,2850.0,+,0.05,Active,1,GSO,French Guiana,South Korea,Commercial,Communications,Ariane,1 37265U 10070B   25293.86882569 -.00000107  00000+0  00000+0 0  9991,2 37265   0.0471  67.7927 0002428 169.3915 265.0591  1.00271492 54378,1.00271492,0.0002428,GEO
37384,BEIDOU-2 IGSO-3,2011,1435.92,4200.0,+,62.07,Active,1,GSO,PRC,China,Government/Military,Navigation (Global or Regional Positioning),Long March,1 37384U 11013A   25292.73721907 -.00000200  00000+0  00000+0 0  9998,2 37384  62.0731  42.4319 0036467 182.5999 176.2235  1.00284214 53240,1.00284214,0.0036467,GSO
37387,RESOURCESAT-2,2011,101.29,1206.0,+,98.79,Active,1,LEO,India,India,Government,Earth Observation,PSLV,1 37387U 11015A   25293.92785745  .00000290  00000+0  15255-3 0  9995,2 37387  98.7947 357.6987 0005972 176.8958 183.2257 14.21596026752183,14.21596026,0.0005972,LEO
37388,YOUTHSAT,2011,101.02,92.0,+,98.34,Active,1,LEO,India,India,Government,Space Science,PSLV,1 37388U 11015B   25293.95573079  .00000468  00000+0  21555-3 0  9991,2 37388  98.3409 274.2175 0013949 329.1388  90.3072 14.25474994753557,14.25474994,0.0013949,LEO
37389,X-SAT,2011,101.05,91.0,+,98.33,Active,1,LEO,India,Singapore,Government,Earth Observation,PSLV,1 37389U 11015C   25293.95743331  .00000328  00000+0  15735-3 0  9990,2 37389  98.3262 277.7716 0013465 330.1559  29.8853 14.25097158753602,14.25097158,0.0013465,LEO
37392,INTELSAT 28 (IS-28),2011,1436.1,3000.0,+,1.18,Active,1,GSO,French Guiana,INTELSAT,Commercial,Communications,Ariane,1 37392U 11016A   25293.90220409 -.00000219  00000+0  00000+0 0  9991,2 37392   1.1839  85.6807 0004010 131.4800 105.5623  1.00271485 50885,1.00271485,0.000401,GSO
37393,YAHSAT 1A,2011,1436.12,5953.0,+,0.01,Active,1,GSO,French Guiana,UAE,Commercial/Military,Communications,Ariane,1 37393U 11016B   25293.91884416  .00000106  00000+0  00000+0 0  9991,2 37393   0.0159 228.5127 0002616   1.7250 182.6736  1.00270273 40008,1.00270273,0.0002616,GEO
